[{"OBJECT_NAME":"STARLINK-5449","OBJECT_ID":"2022-175Y","EPOCH":"2026-03-09T21:45:59.559840","MEAN_MOTION":15.08847038,"ECCENTRICITY":0.00015732,"INCLINATION":53.2193,"RA_OF_ASC_NODE":28.0415,"ARG_OF_PERICENTER":112.9614,"MEAN_ANOMALY":247.1544,"EPHEMERIS_TYPE":0,"CLASSIFICATION_TYPE":"U","NORAD_CAT_ID":54780,"ELEMENT_SET_NO":999,"REV_AT_EPOCH":18016,"BSTAR":0.00014069673,"MEAN_MOTION_DOT":1.952e-5,"MEAN_MOTION_DDOT":0},{"OBJECT_NAME":"ONEWEB-0618","OBJECT_ID":"2023-004V","EPOCH":"2026-03-09T21:27:12.326688","MEAN_MOTION":15.11974897,"ECCENTRICITY":0.00107842,"INCLINATION":86.9069,"RA_OF_ASC_NODE":217.8931,"ARG_OF_PERICENTER":307.7231,"MEAN_ANOMALY":52.303,"EPHEMERIS_TYPE":0,"CLASSIFICATION_TYPE":"U","NORAD_CAT_ID":55159,"ELEMENT_SET_NO":999,"REV_AT_EPOCH":16725,"BSTAR":0.00049587895,"MEAN_MOTION_DOT":8.547e-5,"MEAN_MOTION_DDOT":0}]
